{"type": "FeatureCollection", "features": [ {"type": "Feature", "properties": {"norad_id": 36659, "name": "FENGYUN 1C DEB", "group": "fengyun-1c-debris", "lat": 14.583900995901804, "lon": 177.0352123004068, "alt_km": 955.7826842201548, "timestamp": "2025-12-16T17:51:11.220124+00:00", "meta": {"OBJECT_NAME": "FENGYUN 1C DEB", "OBJECT_ID": "1999-025DYD", "EPOCH": "2025-12-14T06:13:39.009792", "MEAN_MOTION": 13.87377443, "ECCENTRICITY": 0.01358559, "INCLINATION": 99.8543, "RA_OF_ASC_NODE": 351.8249, "ARG_OF_PERICENTER": 70.8843, "MEAN_ANOMALY": 290.6965, "EPHEMERIS_TYPE": 0, "CLASSIFICATION_TYPE": "U", "NORAD_CAT_ID": 36659, "ELEMENT_SET_NO": 999, "REV_AT_EPOCH": 60446, "BSTAR": 0.00085639601, "MEAN_MOTION_DOT": 1.037e-05, "MEAN_MOTION_DDOT": 0}, "tle": {"line1": "1 36659U 99025DYD 25348.25947928  .00001037  00000+0  85640-3 0  9998", "line2": "2 36659  99.8543 351.8249 0135855  70.8843 290.6965 13.87377443604462"}}, "geometry": {"type": "Point", "coordinates": [177.0352123004068, 14.583900995901804]}}, {"type": "Feature", "properties": {"norad_id": 36664, "name": "FENGYUN 1C DEB", "group": "fengyun-1c-debris", "lat": 7.5849883832594145, "lon": -163.61665909129445, "alt_km": 818.9380750976807, "timestamp": "2025-12-16T17:51:11.220134+00:00", "meta": {"OBJECT_NAME": "FENGYUN 1C DEB", "OBJECT_ID": "1999-025DYJ", "EPOCH": "2025-12-13T21:19:15.269088", "MEAN_MOTION": 14.1795708, "ECCENTRICITY": 0.01735818, "INCLINATION": 98.6044, "RA_OF_ASC_NODE": 12.4595, "ARG_OF_PERICENTER": 96.4229, "MEAN_ANOMALY": 265.6744, "EPHEMERIS_TYPE": 0, "CLASSIFICATION_TYPE": "U", "NORAD_CAT_ID": 36664, "ELEMENT_SET_NO": 999, "REV_AT_EPOCH": 63767, "BSTAR": 0.00012052563, "MEAN_MOTION_DOT": 2.45e-06, "MEAN_MOTION_DDOT": 0}, "tle": {"line1": "1 36664U 99025DYJ 25347.88837117  .00000245  00000+0  12053-3 0  9998", "line2": "2 36664  98.6044  12.4595 0173581  96.4229 265.6744 14.17957080637676"}}, "geometry": {"type": "Point", "coordinates": [-163.61665909129445, 7.5849883832594145]}}, {"type": "Feature", "properties": {"norad_id": 36668, "name": "FENGYUN 1C DEB", "group": "fengyun-1c-debris", "lat": 58.40906309259506, "lon": -164.7541262037316, "alt_km": 837.5641603761069, "timestamp": "2025-12-16T17:51:11.220145+00:00", "meta": {"OBJECT_NAME": "FENGYUN 1C DEB", "OBJECT_ID": "1999-025DYN", "EPOCH": "2025-12-12T18:16:20.499168", "MEAN_MOTION": 14.1539418, "ECCENTRICITY": 0.00513656, "INCLINATION": 98.61, "RA_OF_ASC_NODE": 357.138, "ARG_OF_PERICENTER": 225.7345, "MEAN_ANOMALY": 133.9608, "EPHEMERIS_TYPE": 0, "CLASSIFICATION_TYPE": "U", "NORAD_CAT_ID": 36668, "ELEMENT_SET_NO": 999, "REV_AT_EPOCH": 57418, "BSTAR": 0.00089168297, "MEAN_MOTION_DOT": 1.719e-05, "MEAN_MOTION_DDOT": 0}, "tle": {"line1": "1 36668U 99025DYN 25346.76134837  .00001719  00000+0  89168-3 0  9995", "line2": "2 36668  98.6100 357.1380 0051365 225.7345 133.9608 14.15394180574181"}}, "geometry": {"type": "Point", "coordinates": [-164.7541262037316, 58.40906309259506]}}, {"type": "Feature", "properties": {"norad_id": 36676, "name": "FENGYUN 1C DEB", "group": "fengyun-1c-debris", "lat": -57.727020799787795, "lon": 56.20518246589071, "alt_km": 787.5664302105188, "timestamp": "2025-12-16T17:51:11.220155+00:00", "meta": {"OBJECT_NAME": "FENGYUN 1C DEB", "OBJECT_ID": "1999-025DYW", "EPOCH": "2025-12-12T12:03:08.237952", "MEAN_MOTION": 14.43199836, "ECCENTRICITY": 0.00955768, "INCLINATION": 98.7673, "RA_OF_ASC_NODE": 245.9859, "ARG_OF_PERICENTER": 132.3194, "MEAN_ANOMALY": 40.1509, "EPHEMERIS_TYPE": 0, "CLASSIFICATION_TYPE": "U", "NORAD_CAT_ID": 36676, "ELEMENT_SET_NO": 999, "REV_AT_EPOCH": 65062, "BSTAR": 0.00064689298, "MEAN_MOTION_DOT": 2.25e-05, "MEAN_MOTION_DDOT": 0}, "tle": {"line1": "1 36676U 99025DYW 25346.50217868  .00002250  00000+0  64689-3 0  9994", "line2": "2 36676  98.7673 245.9859 0095576 132.3194  40.1509 14.43199836650623"}}, "geometry": {"type": "Point", "coordinates": [56.20518246589071, -57.727020799787795]}}, {"type": "Feature", "properties": {"norad_id": 36678, "name": "FENGYUN 1C DEB", "group": "fengyun-1c-debris", "lat": 12.454861578729965, "lon": 154.81408222316531, "alt_km": 874.3172063323509, "timestamp": "2025-12-16T17:51:11.220165+00:00", "meta": {"OBJECT_NAME": "FENGYUN 1C DEB", "OBJECT_ID": "1999-025DYY", "EPOCH": "2025-11-26T04:26:16.761408", "MEAN_MOTION": 14.37944691, "ECCENTRICITY": 0.01523469, "INCLINATION": 98.2901, "RA_OF_ASC_NODE": 313.1233, "ARG_OF_PERICENTER": 42.409, "MEAN_ANOMALY": 318.8754, "EPHEMERIS_TYPE": 0, "CLASSIFICATION_TYPE": "U", "NORAD_CAT_ID": 36678, "ELEMENT_SET_NO": 999, "REV_AT_EPOCH": 64751, "BSTAR": 0.00045851479, "MEAN_MOTION_DOT": 1.539e-05, "MEAN_MOTION_DDOT": 0}, "tle": {"line1": "1 36678U 99025DYY 25330.18491622  .00001539  00000+0  45851-3 0  9994", "line2": "2 36678  98.2901 313.1233 0152346  42.4090 318.8754 14.37944691647514"}}, "geometry": {"type": "Point", "coordinates": [154.81408222316531, 12.454861578729965]}}, {"type": "Feature", "properties": {"norad_id": 36679, "name": "FENGYUN 1C DEB", "group": "fengyun-1c-debris", "lat": -41.24396339173734, "lon": 158.92441326197942, "alt_km": 931.4541789397554, "timestamp": "2025-12-16T17:51:11.220175+00:00", "meta": {"OBJECT_NAME": "FENGYUN 1C DEB", "OBJECT_ID": "1999-025DYZ", "EPOCH": "2025-12-12T05:06:20.489760", "MEAN_MOTION": 14.04635854, "ECCENTRICITY": 0.00860329, "INCLINATION": 98.8358, "RA_OF_ASC_NODE": 342.3526, "ARG_OF_PERICENTER": 94.9778, "MEAN_ANOMALY": 266.1218, "EPHEMERIS_TYPE": 0, "CLASSIFICATION_TYPE": "U", "NORAD_CAT_ID": 36679, "ELEMENT_SET_NO": 999, "REV_AT_EPOCH": 24541, "BSTAR": 0.00093240851, "MEAN_MOTION_DOT": 1.499e-05, "MEAN_MOTION_DDOT": 0}, "tle": {"line1": "1 36679U 99025DYZ 25346.21273715  .00001499  00000+0  93241-3 0  9998", "line2": "2 36679  98.8358 342.3526 0086032  94.9778 266.1218 14.04635854245414"}}, "geometry": {"type": "Point", "coordinates": [158.92441326197942, -41.24396339173734]}}, {"type": "Feature", "properties": {"norad_id": 36680, "name": "FENGYUN 1C DEB", "group": "fengyun-1c-debris", "lat": 30.132885614173848, "lon": -22.28316368858727, "alt_km": 948.5652260653633, "timestamp": "2025-12-16T17:51:11.220185+00:00", "meta": {"OBJECT_NAME": "FENGYUN 1C DEB", "OBJECT_ID": "1999-025DZA", "EPOCH": "2025-12-14T05:04:08.255424", "MEAN_MOTION": 14.18636998, "ECCENTRICITY": 0.01883827, "INCLINATION": 98.5489, "RA_OF_ASC_NODE": 340.2829, "ARG_OF_PERICENTER": 245.1253, "MEAN_ANOMALY": 177.1613, "EPHEMERIS_TYPE": 0, "CLASSIFICATION_TYPE": "U", "NORAD_CAT_ID": 36680, "ELEMENT_SET_NO": 999, "REV_AT_EPOCH": 64318, "BSTAR": 0.00064832294, "MEAN_MOTION_DOT": 1.558e-05, "MEAN_MOTION_DDOT": 0}, "tle": {"line1": "1 36680U 99025DZA 25348.21120666  .00001558  00000+0  64832-3 0  9998", "line2": "2 36680  98.5489 340.2829 0188382 245.1253 177.1613 14.18636998643181"}}, "geometry": {"type": "Point", "coordinates": [-22.28316368858727, 30.132885614173848]}}, {"type": "Feature", "properties": {"norad_id": 36681, "name": "FENGYUN 1C DEB", "group": "fengyun-1c-debris", "lat": 68.22598343587076, "lon": -168.2326389505813, "alt_km": 873.5839762348514, "timestamp": "2025-12-16T17:51:11.220196+00:00", "meta": {"OBJECT_NAME": "FENGYUN 1C DEB", "OBJECT_ID": "1999-025DZB", "EPOCH": "2025-12-10T18:18:12.275712", "MEAN_MOTION": 14.10256093, "ECCENTRICITY": 0.00454371, "INCLINATION": 98.6973, "RA_OF_ASC_NODE": 343.4508, "ARG_OF_PERICENTER": 355.1749, "MEAN_ANOMALY": 4.8979, "EPHEMERIS_TYPE": 0, "CLASSIFICATION_TYPE": "U", "NORAD_CAT_ID": 36681, "ELEMENT_SET_NO": 999, "REV_AT_EPOCH": 72730, "BSTAR": 0.00096687905, "MEAN_MOTION_DOT": 1.688e-05, "MEAN_MOTION_DDOT": 0}, "tle": {"line1": "1 36681U 99025DZB 25344.76264208  .00001688  00000+0  96688-3 0  9994", "line2": "2 36681  98.6973 343.4508 0045437 355.1749   4.8979 14.10256093727309"}}, "geometry": {"type": "Point", "coordinates": [-168.2326389505813, 68.22598343587076]}}, {"type": "Feature", "properties": {"norad_id": 36682, "name": "FENGYUN 1C DEB", "group": "fengyun-1c-debris", "lat": 68.10504957612535, "lon": 95.87976516146848, "alt_km": 1149.6206402615626, "timestamp": "2025-12-16T17:51:11.220206+00:00", "meta": {"OBJECT_NAME": "FENGYUN 1C DEB", "OBJECT_ID": "1999-025DZC", "EPOCH": "2025-12-15T04:29:39.952608", "MEAN_MOTION": 13.70143194, "ECCENTRICITY": 0.023343, "INCLINATION": 98.4849, "RA_OF_ASC_NODE": 252.7018, "ARG_OF_PERICENTER": 270.8269, "MEAN_ANOMALY": 86.6143, "EPHEMERIS_TYPE": 0, "CLASSIFICATION_TYPE": "U", "NORAD_CAT_ID": 36682, "ELEMENT_SET_NO": 999, "REV_AT_EPOCH": 61426, "BSTAR": 0.0010985687, "MEAN_MOTION_DOT": 1.133e-05, "MEAN_MOTION_DDOT": 0}, "tle": {"line1": "1 36682U 99025DZC 25349.18726797  .00001133  00000+0  10986-2 0  9993", "line2": "2 36682  98.4849 252.7018 0233430 270.8269  86.6143 13.70143194614263"}}, "geometry": {"type": "Point", "coordinates": [95.87976516146848, 68.10504957612535]}}, {"type": "Feature", "properties": {"norad_id": 36684, "name": "FENGYUN 1C DEB", "group": "fengyun-1c-debris", "lat": 7.984922626515289, "lon": 82.37369209468316, "alt_km": 578.4023099812312, "timestamp": "2025-12-16T17:51:11.220216+00:00", "meta": {"OBJECT_NAME": "FENGYUN 1C DEB", "OBJECT_ID": "1999-025DZE", "EPOCH": "2025-12-15T04:54:52.977312", "MEAN_MOTION": 14.96678674, "ECCENTRICITY": 0.00191548, "INCLINATION": 99.4548, "RA_OF_ASC_NODE": 81.8557, "ARG_OF_PERICENTER": 101.6167, "MEAN_ANOMALY": 258.72, "EPHEMERIS_TYPE": 0, "CLASSIFICATION_TYPE": "U", "NORAD_CAT_ID": 36684, "ELEMENT_SET_NO": 999, "REV_AT_EPOCH": 65938, "BSTAR": 0.0026321259, "MEAN_MOTION_DOT": 0.00030193, "MEAN_MOTION_DDOT": 0}, "tle": {"line1": "1 36684U 99025DZE 25349.20477983  .00030193  00000+0  26321-2 0  9996", "line2": "2 36684  99.4548  81.8557 0019154 101.6167 258.7200 14.96678674659387"}}, "geometry": {"type": "Point", "coordinates": [82.37369209468316, 7.984922626515289]}}]}